{
    "links": {
        "self": "http://www.neowsapp.com/rest/v1/neo/3776648?api_key=iIulBulltgU6a56xZRHN4H3l9WmuAYTsLGpBGhQ2"
    },
    "id": "3776648",
    "neo_reference_id": "3776648",
    "name": "(2017 NX5)",
    "designation": "2017 NX5",
    "nasa_jpl_url": "http://ssd.jpl.nasa.gov/sbdb.cgi?sstr=3776648",
    "absolute_magnitude_h": 24.2,
    "estimated_diameter": {
        "kilometers": {
            "estimated_diameter_min": 0.0384197891,
            "estimated_diameter_max": 0.0859092601
        },
        "meters": {
            "estimated_diameter_min": 38.4197891064,
            "estimated_diameter_max": 85.9092601232
        },
        "miles": {
            "estimated_diameter_min": 0.0238729428,
            "estimated_diameter_max": 0.0533815229
        },
        "feet": {
            "estimated_diameter_min": 126.0491808919,
            "estimated_diameter_max": 281.8545369825
        }
    },
    "is_potentially_hazardous_asteroid": false,
    "close_approach_data": [
        {
            "close_approach_date": "1922-12-02",
            "close_approach_date_full": "1922-Dec-02 13:11",
            "epoch_date_close_approach": -1485773340000,
            "relative_velocity": {
                "kilometers_per_second": "21.4171979772",
                "kilometers_per_hour": "77101.912717799",
                "miles_per_hour": "47908.1301551235"
            },
            "miss_distance": {
                "astronomical": "0.3447595295",
                "lunar": "134.1114569755",
                "kilometers": "51575291.275402165",
                "miles": "32047399.940853277"
            },
            "orbiting_body": "Earth"
        },
        {
            "close_approach_date": "2017-07-18",
            "close_approach_date_full": "2017-Jul-18 08:04",
            "epoch_date_close_approach": 1500365040000,
            "relative_velocity": {
                "kilometers_per_second": "13.4047196403",
                "kilometers_per_hour": "48256.9907050372",
                "miles_per_hour": "29985.0173633605"
            },
            "miss_distance": {
                "astronomical": "0.026083859",
                "lunar": "10.146621151",
                "kilometers": "3902089.74778033",
                "miles": "2424646.136935354"
            },
            "orbiting_body": "Earth"
        },
        {
            "close_approach_date": "2107-11-11",
            "close_approach_date_full": "2107-Nov-11 06:09",
            "epoch_date_close_approach": 4350434940000,
            "relative_velocity": {
                "kilometers_per_second": "10.556004405",
                "kilometers_per_hour": "38001.615857865",
                "miles_per_hour": "23612.7262534606"
            },
            "miss_distance": {
                "astronomical": "0.1591649925",
                "lunar": "61.9151820825",
                "kilometers": "23810743.856565975",
                "miles": "14795310.164821455"
            },
            "orbiting_body": "Earth"
        }
    ],
    "orbital_data": {
        "orbit_id": "1",
        "orbit_determination_date": "2017-07-16 05:01:03",
        "first_observation_date": "2017-07-14",
        "last_observation_date": "2017-07-16",
        "data_arc_in_days": 2,
        "observations_used": 17,
        "orbit_uncertainty": "8",
        "minimum_orbit_intersection": ".0197838",
        "jupiter_tisserand_invariant": "3.959",
        "epoch_osculation": "2457949.5",
        "eccentricity": ".5071344913709801",
        "semi_major_axis": "1.749558292948986",
        "inclination": "9.972175756132113",
        "ascending_node_longitude": "111.4770117809593",
        "orbital_period": "845.2614308352365",
        "perihelion_distance": ".8622969379304216",
        "perihelion_argument": "243.8502984681404",
        "aphelion_distance": "2.63681964796755",
        "perihelion_time": "2457996.742171939853",
        "mean_anomaly": "339.8793825461294",
        "mean_motion": ".425903734474516",
        "equinox": "J2000",
        "orbit_class": {
            "orbit_class_type": "APO",
            "orbit_class_description": "Near-Earth asteroid orbits which cross the Earth’s orbit similar to that of 1862 Apollo",
            "orbit_class_range": "a (semi-major axis) > 1.0 AU; q (perihelion) < 1.017 AU"
        }
    },
    "is_sentry_object": false
}